{
  "norad_id": 65061,
  "name": "STARLINK-34750",
  "history": [
    {
      "epoch": "2026-03-28T21:15:02.398752Z",
      "apogee_km": 549.783696310008,
      "perigee_km": 549.2042692546074,
      "latitude_deg": 2.7316259740456015e-06,
      "longitude_deg": 21.165035062241614,
      "height_km": 552.6698874708816,
      "semi_major_axis_km": 6927.630982782307,
      "eccentricity": 4.182e-05,
      "inclination_deg": 97.6046,
      "raan_deg": 166.2245,
      "arg_perigee_deg": 112.6033,
      "mean_anomaly_deg": 247.5238,
      "mean_motion_rev_day": 15.05655598
    },
    {
      "epoch": "2026-03-29T05:13:32.264256Z",
      "apogee_km": 549.7569034261151,
      "perigee_km": 549.2013086144116,
      "latitude_deg": 9.50379719901693e-05,
      "longitude_deg": -98.45923680649973,
      "height_km": 552.6653248016153,
      "semi_major_axis_km": 6927.616106020263,
      "eccentricity": 4.01e-05,
      "inclination_deg": 97.605,
      "raan_deg": 166.5522,
      "arg_perigee_deg": 115.9685,
      "mean_anomaly_deg": 244.1584,
      "mean_motion_rev_day": 15.05660448
    }
  ]
}